GPS BIIA-23 (PRN 18)    
1 22877U 93068A   18285.11962003 -.00000033  00000-0  00000+0 0  9994
2 22877  54.5090  78.7070 0147636  77.4428 154.7718  2.00569220182896
GPS BIIR-2  (PRN 13)    
1 24876U 97035A   18285.19248391 -.00000001  00000-0  00000+0 0  9993
2 24876  55.4765 208.1798 0032508  82.0367 278.3533  2.00564118155492
GPS BIIR-3  (PRN 11)    
1 25933U 99055A   18285.29651876 -.00000068  00000-0  00000+0 0  9992
2 25933  51.9693  56.5930 0167240 104.8379 257.5285  2.00564496139314
GPS BIIR-4  (PRN 20)    
1 26360U 00025A   18285.13448894  .00000007  00000-0  00000+0 0  9995
2 26360  53.2367 134.7871 0041787 123.5321 168.1537  2.00563108135005
GPS BIIR-5  (PRN 28)    
1 26407U 00040A   18285.18456903 -.00000071  00000-0  00000+0 0  9991
2 26407  56.4147 326.3175 0198545 273.5688  31.4744  2.00562119133686
GPS BIIR-6  (PRN 14)    
1 26605U 00071A   18285.26653464 -.00000001  00000-0  00000+0 0  9998
2 26605  55.0499 205.7225 0102462 249.1317  23.3060  2.00567813131289
GPS BIIR-8  (PRN 16)    
1 27663U 03005A   18284.59673624 -.00000069  00000-0  00000+0 0  9992
2 27663  56.4780 326.1041 0098980  28.5417 332.0622  2.00560347115039
GPS BIIR-9  (PRN 21)    
1 27704U 03010A   18285.21913362 -.00000034  00000-0  00000+0 0  9992
2 27704  54.1813  78.2519 0245942 272.7436 138.6640  2.00570712113842
GPS BIIR-10 (PRN 22)    
1 28129U 03058A   18284.89017392  .00000009  00000-0  00000+0 0  9998
2 28129  53.0494 137.6298 0072428 275.3943  83.8651  2.00561104108538
GPS BIIR-11 (PRN 19)    
1 28190U 04009A   18285.49318201 -.00000091  00000-0  00000+0 0  9995
2 28190  56.2118  26.8853 0093625  74.0610   0.7761  2.00572162106722
GPS BIIR-12 (PRN 23)    
1 28361U 04023A   18285.32240639 -.00000003  00000-0  00000+0 0  9995
2 28361  54.0542 200.3421 0127988 227.5573 359.0928  2.00558097104805
GPS BIIR-13 (PRN 02)    
1 28474U 04045A   18285.50844417 -.00000033  00000-0  00000+0 0  9991
2 28474  54.5467  77.8990 0184726 255.5543 106.3361  2.00575378102173
GPS BIIRM-1 (PRN 17)    
1 28874U 05038A   18285.43187059 -.00000093  00000-0  00000+0 0  9998
2 28874  56.3473  24.2119 0129392 258.7550 158.1393  2.00569645 95579
GPS BIIRM-2 (PRN 31)    
1 29486U 06042A   18285.27215446 -.00000012  00000-0  00000+0 0  9999
2 29486  55.1206 262.9752 0089938 352.8566 228.6753  2.00553680 88283
GPS BIIRM-3 (PRN 12)    
1 29601U 06052A   18284.40758862 -.00000067  00000-0  00000-0 0  9998
2 29601  56.4553 325.0276 0068142  57.6544 303.0612  2.00553892 87133
GPS BIIRM-4 (PRN 15)    
1 32260U 07047A   18284.23215134 -.00000001  00000-0  00000-0 0  9997
2 32260  53.1780 196.3038 0106980  39.9962 320.8270  2.00574417 80573
GPS BIIRM-5 (PRN 29)    
1 32384U 07062A   18285.39592455 -.00000092  00000-0  00000+0 0  9992
2 32384  56.4245  24.8318 0005047  96.9442 161.3413  2.00570530 79315
GPS BIIRM-6 (PRN 07)    
1 32711U 08012A   18285.13482090 -.00000013  00000-0  00000+0 0  9990
2 32711  54.8562 262.2307 0122462 218.3826 140.7160  2.00567668 77491
GPS BIIRM-8 (PRN 05)    
1 35752U 09043A   18285.54445102  .00000007  00000-0  00000+0 0  9993
2 35752  54.3475 139.9497 0055209  38.3087 281.8415  2.00548918 67081
GPS BIIF-1  (PRN 25)    
1 36585U 10022A   18285.45038284 -.00000067  00000-0  00000+0 0  9993
2 36585  55.7416 321.4640 0073141  47.9316 314.2126  2.00574769 61335
GPS BIIF-2  (PRN 01)    
1 37753U 11036A   18285.11839583 -.00000026  00000-0  00000+0 0  9996
2 37753  55.7442  81.5812 0079914  38.7768 167.4960  2.00564891 53004
GPS BIIF-3  (PRN 24)    
1 38833U 12053A   18284.31732796 -.00000020  00000-0  00000-0 0  9990
2 38833  53.8883 258.7073 0072878  29.2144 331.1617  2.00568944 43274
GPS BIIF-4  (PRN 27)    
1 39166U 13023A   18284.17985603 -.00000095  00000-0  00000-0 0  9991
2 39166  56.0395  21.1193 0059675  23.6274 336.6661  2.00561373 39604
GPS BIIF-5  (PRN 30)    
1 39533U 14008A   18285.17642093 -.00000015  00000-0  00000+0 0  9998
2 39533  54.0281 264.0374 0036561 193.2224 166.6586  2.00562765 33978
GPS BIIF-6  (PRN 06)    
1 39741U 14026A   18285.45437308 -.00000026  00000-0  00000+0 0  9993
2 39741  55.7269  81.0916 0012095 288.6094  71.2604  2.00558676 32261
GPS BIIF-7  (PRN 09)    
1 40105U 14045A   18285.04095140 -.00000001  00000-0  00000+0 0  9992
2 40105  54.5805 200.5211 0009940  98.4556 261.6927  2.00547427 30703
GPS BIIF-8  (PRN 03)    
1 40294U 14068A   18284.92092207  .00000014  00000-0  00000+0 0  9996
2 40294  55.0989 141.3331 0016633  32.3121 327.8793  2.00564854 28928
GPS BIIF-9  (PRN 26)    
1 40534U 15013A   18285.05629831 -.00000067  00000-0  00000+0 0  9997
2 40534  54.6787 320.0801 0030167 358.2119   1.8267  2.00556774 25990
GPS BIIF-10  (PRN 08)   
1 40730U 15033A   18284.71577727 -.00000096  00000-0  00000+0 0  9997
2 40730  55.5682  20.5509 0037160 332.9547  26.8758  2.00568124 23748
GPS BIIF-11  (PRN 10)   
1 41019U 15062A   18285.26711614  .00000010  00000-0  00000+0 0  9991
2 41019  55.1027 141.1263 0039439 201.8470 158.0713  2.00564576 21570
GPS BIIF-12  (PRN 32)   
1 41328U 16007A   18284.85782008 -.00000000  00000-0  00000+0 0  9993
2 41328  54.8289 200.8509 0024363 217.3041 142.5609  2.00558655 19627
